QB50P1                  
1 40025U 14033R   26162.54789999  .00007133  00000+0  35252-3 0  9992
2 40025  98.0966 173.2986 0007302 237.3952 122.6576 15.18175616652171
DTUSAT-2                
1 40030U 14033W   26162.55772759  .00006319  00000+0  34274-3 0  9993
2 40030  98.0858 159.9274 0006276 248.7752 111.2808 15.14945636651838
QB50P2                  
1 40032U 14033Y   26162.55252602  .00006425  00000+0  34698-3 0  9993
2 40032  98.0748 159.0820 0007419 181.7968 178.3237 15.15086819651819
PERSEUS-M1              
1 40039U 14033AF  26162.34940913  .00001092  00000+0  10369-3 0  9990
2 40039  97.9645 106.3857 0010654 323.7126  36.3370 14.95615033649769
POLYITAN-1              
1 40042U 14033AJ  26162.56992700  .00017209  00000+0  54049-3 0  9999
2 40042  98.0948 188.3000 0008221 157.2882 202.8723 15.33059445652732
TIGRISAT                
1 40043U 14033AK  26162.65853057  .00001873  00000+0  22021-3 0  9996
2 40043  97.7821 312.7974 0050728  92.8677 267.8345 14.85141538644808
CANX-4                  
1 40055U 14034C   26162.61273681  .00000831  00000+0  11381-3 0  9995
2 40055  98.3130  37.7210 0013549  34.1923 326.0158 14.81254668643704
CANX-5                  
1 40056U 14034D   26162.61123470  .00000829  00000+0  11358-3 0  9997
2 40056  98.3132  37.7628 0013559  34.2824 325.9260 14.81271812634513
GONETS-M 10             
1 40063U 14036C   26162.75788434  .00000026  00000+0  11178-3 0  9998
2 40063  82.5107 311.0477 0022468 152.0342 208.1950 12.42945582541579
METEOR-M 2              
1 40069U 14037A   26162.72556873 -.00000333  00000+0 -13310-3 0  9995
2 40069  98.5108 138.6571 0006944  58.0327 302.1525 14.21458521618546
DX1                     
1 40071U 14037C   26162.72035306  .00001948  00000+0  20866-3 0  9996
2 40071  98.3861 124.0900 0005791 298.0904  61.9726 14.89971195645290
UKUBE-1                 
1 40074U 14037F   26162.54870419  .00008430  00000+0  47547-3 0  9999
2 40074  98.4236 165.2283 0002250 139.8692 220.2703 15.13464824647701
GAOFEN-2                
1 40118U 14049A   26162.70335847  .00000391  00000+0  57507-4 0  9996
2 40118  98.0112 226.9158 0005913 248.9113 111.1467 14.80893025638420
BRITE-PL2 (HEWELIUSZ)   
1 40119U 14049B   26162.61554125  .00001285  00000+0  12409-3 0  9993
2 40119  97.9092 274.5729 0015129 124.9359 235.3285 14.94576660640613
CBERS 4                 
1 40336U 14079A   26162.73986175  .00000129  00000+0  59637-4 0  9995
2 40336  98.3537 219.7423 0001972  68.8348 291.3048 14.35507817603172
SMAP                    
1 40376U 15003A   26162.67815329  .00000385  00000+0  83594-4 0  9995
2 40376  98.1276 169.8507 0001288  94.0624 266.0726 14.63361843606814
GONETS-M 11             
1 40552U 15020A   26162.69552667  .00000017  00000+0  51668-4 0  9994
2 40552  82.4878  34.4139 0016859  17.4107 342.7548 12.42876911508050
GONETS-M 12             
1 40553U 15020B   26162.66907775 -.00000008  00000+0 -13018-3 0  9994
2 40553  82.4912  35.5527 0015590   2.8434 357.2732 12.42890838508044
GONETS-M 13             
1 40554U 15020C   26162.72296477 -.00000054  00000+0 -45785-3 0  9999
2 40554  82.4874  34.1359 0013922 348.3228  11.7527 12.42869768508026
DMC3-FM1                
1 40715U 15032A   26162.75016111 -.00000145  00000+0 -10779-4 0  9996
2 40715  97.6476  28.1385 0007147  73.5162 286.6839 14.85730821589102
DMC3-FM2                
1 40716U 15032B   26162.70488704  .00000155  00000+0  23786-4 0  9994
2 40716  97.6528  29.6647 0007610  78.1816 282.0253 14.85735852589097
DMC3-FM3                
1 40717U 15032C   26162.72817444  .00000783  00000+0  96168-4 0  9995
2 40717  97.6581  31.4367 0006872  78.4870 281.7117 14.85728057589105
CARBONITE 1 (CBNT-1)    
1 40718U 15032D   26162.71939101  .00001931  00000+0  24018-3 0  9990
2 40718  97.6508 341.0154 0013488 317.5888  42.4283 14.83571633588532
LILACSAT-2              
1 40908U 15049K   26162.72511125  .00016695  00000+0  28622-3 0  9990
2 40908  97.4658 199.3593 0005273 271.4638  88.6010 15.51265879594908
COSMOS 2507 (RODNIK-S *)
1 40920U 15050A   26162.67811294  .00000034  00000+0  17456-3 0  9993
2 40920  82.4919  83.0993 0010456   8.4215 351.7038 12.42926872486174
COSMOS 2508 (RODNIK-S *)
1 40921U 15050B   26162.71357623  .00000065  00000+0  39713-3 0  9994
2 40921  82.4873  81.5844 0015330  38.1239 322.0922 12.42914290486167
COSMOS 2509 (RODNIK-S *)
1 40922U 15050C   26162.73377922  .00000015  00000+0  37266-4 0  9998
2 40922  82.4880  81.6736 0015821  54.0205 306.2339 12.42883616486200
