OBJECT_NAME,OBJECT_ID,EPOCH,MEAN_MOTION,ECCENTRICITY,INCLINATION,RA_OF_ASC_NODE,ARG_OF_PERICENTER,MEAN_ANOMALY,EPHEMERIS_TYPE,CLASSIFICATION_TYPE,NORAD_CAT_ID,ELEMENT_SET_NO,REV_AT_EPOCH,BSTAR,MEAN_MOTION_DOT,MEAN_MOTION_DDOT
QB50P1,2014-033R,2026-06-11T13:08:58.559136,15.18175616,.0007302,98.0966,173.2986,237.3952,122.6576,0,U,40025,999,65217,.35252E-3,.7133E-4,0
DTUSAT-2,2014-033W,2026-06-11T13:23:07.663776,15.14945636,.0006276,98.0858,159.9274,248.7752,111.2808,0,U,40030,999,65183,.34274E-3,.6319E-4,0
QB50P2,2014-033Y,2026-06-11T13:15:38.248128,15.15086819,.0007419,98.0748,159.0820,181.7968,178.3237,0,U,40032,999,65181,.34698E-3,.6425E-4,0
PERSEUS-M1,2014-033AF,2026-06-11T08:23:08.948832,14.95615033,.0010654,97.9645,106.3857,323.7126,36.3370,0,U,40039,999,64976,.10369E-3,.1092E-4,0
POLYITAN-1,2014-033AJ,2026-06-11T13:40:41.692800,15.33059445,.0008221,98.0948,188.3000,157.2882,202.8723,0,U,40042,999,65273,.54049E-3,.17209E-3,0
TIGRISAT,2014-033AK,2026-06-11T15:48:17.041248,14.85141538,.0050728,97.7821,312.7974,92.8677,267.8345,0,U,40043,999,64480,.22021E-3,.1873E-4,0
CANX-4,2014-034C,2026-06-11T14:42:20.460384,14.81254668,.0013549,98.3130,37.7210,34.1923,326.0158,0,U,40055,999,64370,.11381E-3,.831E-5,0
CANX-5,2014-034D,2026-06-11T14:40:10.678080,14.81271812,.0013559,98.3132,37.7628,34.2824,325.9260,0,U,40056,999,63451,.11358E-3,.829E-5,0
GONETS-M 10,2014-036C,2026-06-11T18:11:21.206976,12.42945582,.0022468,82.5107,311.0477,152.0342,208.1950,0,U,40063,999,54157,.11178E-3,.26E-6,0
METEOR-M 2,2014-037A,2026-06-11T17:24:49.138272,14.21458521,.0006944,98.5108,138.6571,58.0327,302.1525,0,U,40069,999,61854,-.1331E-3,-.333E-5,0
DX1,2014-037C,2026-06-11T17:17:18.504384,14.89971195,.0005791,98.3861,124.0900,298.0904,61.9726,0,U,40071,999,64529,.20866E-3,.1948E-4,0
UKUBE-1,2014-037F,2026-06-11T13:10:08.042016,15.13464824,.000225,98.4236,165.2283,139.8692,220.2703,0,U,40074,999,64770,.47547E-3,.843E-4,0
GAOFEN-2,2014-049A,2026-06-11T16:52:50.171808,14.80893025,.0005913,98.0112,226.9158,248.9113,111.1467,0,U,40118,999,63842,.57507E-4,.391E-5,0
BRITE-PL2 (HEWELIUSZ),2014-049B,2026-06-11T14:46:22.764000,14.94576660,.0015129,97.9092,274.5729,124.9359,235.3285,0,U,40119,999,64061,.12409E-3,.1285E-4,0
CBERS 4,2014-079A,2026-06-11T17:45:24.055200,14.35507817,.0001972,98.3537,219.7423,68.8348,291.3048,0,U,40336,999,60317,.59637E-4,.129E-5,0
SMAP,2015-003A,2026-06-11T16:16:32.444256,14.63361843,.0001288,98.1276,169.8507,94.0624,266.0726,0,U,40376,999,60681,.83594E-4,.385E-5,0
GONETS-M 11,2015-020A,2026-06-11T16:41:33.504288,12.42876911,.0016859,82.4878,34.4139,17.4107,342.7548,0,U,40552,999,50805,.51668E-4,.17E-6,0
GONETS-M 12,2015-020B,2026-06-11T16:03:28.317600,12.42890838,.001559,82.4912,35.5527,2.8434,357.2732,0,U,40553,999,50804,-.13018E-3,-.8E-7,0
GONETS-M 13,2015-020C,2026-06-11T17:21:04.156128,12.42869768,.0013922,82.4874,34.1359,348.3228,11.7527,0,U,40554,999,50802,-.45785E-3,-.54E-6,0
DMC3-FM1,2015-032A,2026-06-11T18:00:13.919904,14.85730821,.0007147,97.6476,28.1385,73.5162,286.6839,0,U,40715,999,58910,-.10779E-4,-.145E-5,0
DMC3-FM2,2015-032B,2026-06-11T16:55:02.240256,14.85735852,.000761,97.6528,29.6647,78.1816,282.0253,0,U,40716,999,58909,.23786E-4,.155E-5,0
DMC3-FM3,2015-032C,2026-06-11T17:28:34.271616,14.85728057,.0006872,97.6581,31.4367,78.4870,281.7117,0,U,40717,999,58910,.96168E-4,.783E-5,0
CARBONITE 1 (CBNT-1),2015-032D,2026-06-11T17:15:55.383264,14.83571633,.0013488,97.6508,341.0154,317.5888,42.4283,0,U,40718,999,58853,.24018E-3,.1931E-4,0
LILACSAT-2,2015-049K,2026-06-11T17:24:09.612000,15.51265879,.0005273,97.4658,199.3593,271.4638,88.6010,0,U,40908,999,59490,.28622E-3,.16695E-3,0
COSMOS 2507 (RODNIK-S 13),2015-050A,2026-06-11T16:16:28.958016,12.42926872,.0010456,82.4919,83.0993,8.4215,351.7038,0,U,40920,999,48617,.17456E-3,.34E-6,0
COSMOS 2508 (RODNIK-S 14),2015-050B,2026-06-11T17:07:32.986272,12.42914290,.001533,82.4873,81.5844,38.1239,322.0922,0,U,40921,999,48616,.39713E-3,.65E-6,0
COSMOS 2509 (RODNIK-S 15),2015-050C,2026-06-11T17:36:38.524608,12.42883616,.0015821,82.4880,81.6736,54.0205,306.2339,0,U,40922,999,48620,.37266E-4,.15E-6,0
